{
  "type": "FeatureCollection",
  "features": [
    {
      "type": "Feature",
      "properties": {
        "norad_id": 34765,
        "name": "IRIDIUM 33 DEB",
        "group": "iridium-33-debris",
        "lat": 86.09614808587295,
        "lon": 142.39330449231835,
        "alt_km": 754.1369637945018,
        "timestamp": "2025-12-14T05:42:18.847054+00:00",
        "meta_object_name": "IRIDIUM 33 DEB",
        "meta_object_id": "1997-051LJ",
        "meta_epoch": "2025-12-13T02:44:34.828800",
        "meta_mean_motion": 14.40467179,
        "meta_eccentricity": 0.00154785,
        "meta_inclination": 86.3397,
        "meta_ra_of_asc_node": 32.601,
        "meta_arg_of_pericenter": 210.1302,
        "meta_mean_anomaly": 179.3412,
        "meta_ephemeris_type": 0,
        "meta_classification_type": "U",
        "meta_norad_cat_id": 34765,
        "meta_element_set_no": 999,
        "meta_rev_at_epoch": 87619,
        "meta_bstar": 0.00062555047,
        "meta_mean_motion_dot": 2.01e-05,
        "meta_mean_motion_ddot": 0,
        "tle_line1": "1 34765U 97051LJ  25347.11429200  .00002010  00000+0  62555-3 0  9995",
        "tle_line2": "2 34765  86.3397  32.6010 0015478 210.1302 179.3412 14.40467179876190"
      },
      "geometry": {
        "type": "Point",
        "coordinates": [
          142.39330449231835,
          86.09614808587295
        ]
      }
    },
    {
      "type": "Feature",
      "properties": {
        "norad_id": 34833,
        "name": "IRIDIUM 33 DEB",
        "group": "iridium-33-debris",
        "lat": -80.55646357971747,
        "lon": -107.36574643136572,
        "alt_km": 740.3518846042361,
        "timestamp": "2025-12-14T05:42:18.847065+00:00",
        "meta_object_name": "IRIDIUM 33 DEB",
        "meta_object_id": "1997-051MH",
        "meta_epoch": "2025-12-13T15:51:07.307136",
        "meta_mean_motion": 14.52387072,
        "meta_eccentricity": 0.00217361,
        "meta_inclination": 86.393,
        "meta_ra_of_asc_node": 50.5964,
        "meta_arg_of_pericenter": 95.6989,
        "meta_mean_anomaly": 29.3968,
        "meta_ephemeris_type": 0,
        "meta_classification_type": "U",
        "meta_norad_cat_id": 34833,
        "meta_element_set_no": 999,
        "meta_rev_at_epoch": 87728,
        "meta_bstar": 0.00099458313,
        "meta_mean_motion_dot": 4.082e-05,
        "meta_mean_motion_ddot": 0,
        "tle_line1": "1 34833U 97051MH  25347.66050124  .00004082  00000+0  99458-3 0  9999",
        "tle_line2": "2 34833  86.3930  50.5964 0021736  95.6989  29.3968 14.52387072877284"
      },
      "geometry": {
        "type": "Point",
        "coordinates": [
          -107.36574643136572,
          -80.55646357971747
        ]
      }
    },
    {
      "type": "Feature",
      "properties": {
        "norad_id": 34870,
        "name": "IRIDIUM 33 DEB",
        "group": "iridium-33-debris",
        "lat": 2.706299434900917,
        "lon": -46.42721015843282,
        "alt_km": 654.6286006797218,
        "timestamp": "2025-12-14T05:42:18.847075+00:00",
        "meta_object_name": "IRIDIUM 33 DEB",
        "meta_object_id": "1997-051MQ",
        "meta_epoch": "2025-12-13T15:51:00.242208",
        "meta_mean_motion": 14.76459498,
        "meta_eccentricity": 0.00163253,
        "meta_inclination": 86.31,
        "meta_ra_of_asc_node": 313.6624,
        "meta_arg_of_pericenter": 179.046,
        "meta_mean_anomaly": 357.3162,
        "meta_ephemeris_type": 0,
        "meta_classification_type": "U",
        "meta_norad_cat_id": 34870,
        "meta_element_set_no": 999,
        "meta_rev_at_epoch": 88924,
        "meta_bstar": 0.0017247419,
        "meta_mean_motion_dot": 0.00012059,
        "meta_mean_motion_ddot": 0,
        "tle_line1": "1 34870U 97051MQ  25347.66041947  .00012059  00000+0  17247-2 0  9991",
        "tle_line2": "2 34870  86.3100 313.6624 0016325 179.0460 357.3162 14.76459498889246"
      },
      "geometry": {
        "type": "Point",
        "coordinates": [
          -46.42721015843282,
          2.706299434900917
        ]
      }
    },
    {
      "type": "Feature",
      "properties": {
        "norad_id": 34896,
        "name": "IRIDIUM 33 DEB",
        "group": "iridium-33-debris",
        "lat": 30.830603034669544,
        "lon": 143.8169883841107,
        "alt_km": 662.7096331380135,
        "timestamp": "2025-12-14T05:42:18.847086+00:00",
        "meta_object_name": "IRIDIUM 33 DEB",
        "meta_object_id": "1997-051MY",
        "meta_epoch": "2025-12-13T16:42:42.386688",
        "meta_mean_motion": 14.66293467,
        "meta_eccentricity": 0.00244205,
        "meta_inclination": 86.3286,
        "meta_ra_of_asc_node": 326.256,
        "meta_arg_of_pericenter": 210.8837,
        "meta_mean_anomaly": 322.3766,
        "meta_ephemeris_type": 0,
        "meta_classification_type": "U",
        "meta_norad_cat_id": 34896,
        "meta_element_set_no": 999,
        "meta_rev_at_epoch": 87633,
        "meta_bstar": 0.0011949443,
        "meta_mean_motion_dot": 6.641e-05,
        "meta_mean_motion_ddot": 0,
        "tle_line1": "1 34896U 97051MY  25347.69632392  .00006641  00000+0  11949-2 0  9995",
        "tle_line2": "2 34896  86.3286 326.2560 0024420 210.8837 322.3766 14.66293467876334"
      },
      "geometry": {
        "type": "Point",
        "coordinates": [
          143.8169883841107,
          30.830603034669544
        ]
      }
    },
    {
      "type": "Feature",
      "properties": {
        "norad_id": 34926,
        "name": "IRIDIUM 33 DEB",
        "group": "iridium-33-debris",
        "lat": 8.45825099635354,
        "lon": -172.99744035183375,
        "alt_km": 736.3447750413279,
        "timestamp": "2025-12-14T05:42:18.847096+00:00",
        "meta_object_name": "IRIDIUM 33 DEB",
        "meta_object_id": "1997-051NF",
        "meta_epoch": "2025-12-12T12:20:13.285824",
        "meta_mean_motion": 14.54404213,
        "meta_eccentricity": 0.00756259,
        "meta_inclination": 86.1328,
        "meta_ra_of_asc_node": 8.3778,
        "meta_arg_of_pericenter": 293.6501,
        "meta_mean_anomaly": 219.03,
        "meta_ephemeris_type": 0,
        "meta_classification_type": "U",
        "meta_norad_cat_id": 34926,
        "meta_element_set_no": 999,
        "meta_rev_at_epoch": 86453,
        "meta_bstar": 0.0080603055,
        "meta_mean_motion_dot": 0.0003576,
        "meta_mean_motion_ddot": 0,
        "tle_line1": "1 34926U 97051NF  25346.51404266  .00035760  00000+0  80603-2 0  9993",
        "tle_line2": "2 34926  86.1328   8.3778 0075625 293.6501 219.0300 14.54404213864537"
      },
      "geometry": {
        "type": "Point",
        "coordinates": [
          -172.99744035183375,
          8.45825099635354
        ]
      }
    },
    {
      "type": "Feature",
      "properties": {
        "norad_id": 34985,
        "name": "IRIDIUM 33 DEB",
        "group": "iridium-33-debris",
        "lat": -50.10049121621463,
        "lon": -119.40501043797393,
        "alt_km": 744.5375211921264,
        "timestamp": "2025-12-14T05:42:18.847107+00:00",
        "meta_object_name": "IRIDIUM 33 DEB",
        "meta_object_id": "1997-051NR",
        "meta_epoch": "2025-12-12T23:13:51.153888",
        "meta_mean_motion": 14.42012529,
        "meta_eccentricity": 0.00207583,
        "meta_inclination": 86.37,
        "meta_ra_of_asc_node": 56.7821,
        "meta_arg_of_pericenter": 219.0302,
        "meta_mean_anomaly": 263.5766,
        "meta_ephemeris_type": 0,
        "meta_classification_type": "U",
        "meta_norad_cat_id": 34985,
        "meta_element_set_no": 999,
        "meta_rev_at_epoch": 87178,
        "meta_bstar": 0.0010455492,
        "meta_mean_motion_dot": 3.457e-05,
        "meta_mean_motion_ddot": 0,
        "tle_line1": "1 34985U 97051NR  25346.96795317  .00003457  00000+0  10455-2 0  9993",
        "tle_line2": "2 34985  86.3700  56.7821 0020758 219.0302 263.5766 14.42012529871789"
      },
      "geometry": {
        "type": "Point",
        "coordinates": [
          -119.40501043797393,
          -50.10049121621463
        ]
      }
    },
    {
      "type": "Feature",
      "properties": {
        "norad_id": 35051,
        "name": "IRIDIUM 33 DEB",
        "group": "iridium-33-debris",
        "lat": -13.145312723222728,
        "lon": -170.93038851597407,
        "alt_km": 740.3728529766595,
        "timestamp": "2025-12-14T05:42:18.847117+00:00",
        "meta_object_name": "IRIDIUM 33 DEB",
        "meta_object_id": "1997-051NX",
        "meta_epoch": "2025-12-11T08:47:57.045408",
        "meta_mean_motion": 14.47588957,
        "meta_eccentricity": 0.00106566,
        "meta_inclination": 86.3243,
        "meta_ra_of_asc_node": 9.4603,
        "meta_arg_of_pericenter": 94.8899,
        "meta_mean_anomaly": 265.3522,
        "meta_ephemeris_type": 0,
        "meta_classification_type": "U",
        "meta_norad_cat_id": 35051,
        "meta_element_set_no": 999,
        "meta_rev_at_epoch": 86976,
        "meta_bstar": 0.001042299,
        "meta_mean_motion_dot": 3.858e-05,
        "meta_mean_motion_ddot": 0,
        "tle_line1": "1 35051U 97051NX  25345.36663247  .00003858  00000+0  10423-2 0  9997",
        "tle_line2": "2 35051  86.3243   9.4603 0010656  94.8899 265.3522 14.47588957869768"
      },
      "geometry": {
        "type": "Point",
        "coordinates": [
          -170.93038851597407,
          -13.145312723222728
        ]
      }
    }
  ]
}